[{"OBJECT_NAME":"IUS R/B(2)","OBJECT_ID":"1991-054D","EPOCH":"2026-03-01T05:13:10.144128","MEAN_MOTION":1.00380512,"ECCENTRICITY":0.0036956,"INCLINATION":13.8694,"RA_OF_ASC_NODE":333.834,"ARG_OF_PERICENTER":344.3379,"MEAN_ANOMALY":200.1551,"EPHEMERIS_TYPE":0,"CLASSIFICATION_TYPE":"U","NORAD_CAT_ID":21641,"ELEMENT_SET_NO":999,"REV_AT_EPOCH":4628,"BSTAR":0,"MEAN_MOTION_DOT":-2.72e-6,"MEAN_MOTION_DDOT":0},{"OBJECT_NAME":"COSMOS 2155","OBJECT_ID":"1991-064A","EPOCH":"2026-03-02T11:13:12.919296","MEAN_MOTION":1.00166877,"ECCENTRICITY":0.00027769,"INCLINATION":13.2083,"RA_OF_ASC_NODE":340.0397,"ARG_OF_PERICENTER":266.4353,"MEAN_ANOMALY":308.7559,"EPHEMERIS_TYPE":0,"CLASSIFICATION_TYPE":"U","NORAD_CAT_ID":21702,"ELEMENT_SET_NO":999,"REV_AT_EPOCH":12626,"BSTAR":0,"MEAN_MOTION_DOT":5.4e-7,"MEAN_MOTION_DDOT":0},{"OBJECT_NAME":"SL-12 R/B(2)","OBJECT_ID":"1991-064B","EPOCH":"2026-03-02T14:49:56.883072","MEAN_MOTION":0.99901793,"ECCENTRICITY":0.00031322,"INCLINATION":13.4104,"RA_OF_ASC_NODE":340.7023,"ARG_OF_PERICENTER":359.9154,"MEAN_ANOMALY":193.5737,"EPHEMERIS_TYPE":0,"CLASSIFICATION_TYPE":"U","NORAD_CAT_ID":21703,"ELEMENT_SET_NO":999,"REV_AT_EPOCH":11908,"BSTAR":0,"MEAN_MOTION_DOT":-2.82e-6,"MEAN_MOTION_DDOT":0},{"OBJECT_NAME":"SL-12 R/B(2)","OBJECT_ID":"1991-074D","EPOCH":"2026-03-01T19:34:55.470720","MEAN_MOTION":0.99698548,"ECCENTRICITY":0.00021712,"INCLINATION":13.5278,"RA_OF_ASC_NODE":342.1279,"ARG_OF_PERICENTER":259.4528,"MEAN_ANOMALY":273.4076,"EPHEMERIS_TYPE":0,"CLASSIFICATION_TYPE":"U","NORAD_CAT_ID":21762,"ELEMENT_SET_NO":999,"REV_AT_EPOCH":11860,"BSTAR":0,"MEAN_MOTION_DOT":6.6e-7,"MEAN_MOTION_DDOT":0},{"OBJECT_NAME":"COSMOS 2172","OBJECT_ID":"1991-079A","EPOCH":"2026-03-03T02:00:59.319360","MEAN_MOTION":1.0026066,"ECCENTRICITY":0.0004819,"INCLINATION":13.3306,"RA_OF_ASC_NODE":341.1233,"ARG_OF_PERICENTER":351.0415,"MEAN_ANOMALY":203.019,"EPHEMERIS_TYPE":0,"CLASSIFICATION_TYPE":"U","NORAD_CAT_ID":21789,"ELEMENT_SET_NO":999,"REV_AT_EPOCH":4629,"BSTAR":0,"MEAN_MOTION_DOT":-1.58e-6,"MEAN_MOTION_DDOT":0},{"OBJECT_NAME":"RADUGA 28","OBJECT_ID":"1991-087A","EPOCH":"2026-03-02T22:15:35.559360","MEAN_MOTION":1.00298055,"ECCENTRICITY":0.000356,"INCLINATION":13.4423,"RA_OF_ASC_NODE":341.8229,"ARG_OF_PERICENTER":200.2749,"MEAN_ANOMALY":345.0378,"EPHEMERIS_TYPE":0,"CLASSIFICATION_TYPE":"U","NORAD_CAT_ID":21821,"ELEMENT_SET_NO":999,"REV_AT_EPOCH":12525,"BSTAR":0,"MEAN_MOTION_DOT":1.18e-6,"MEAN_MOTION_DDOT":0},{"OBJECT_NAME":"PALAPA B4","OBJECT_ID":"1992-027A","EPOCH":"2026-03-03T02:51:54.438048","MEAN_MOTION":0.99952509,"ECCENTRICITY":0.0003423,"INCLINATION":13.1333,"RA_OF_ASC_NODE":18.0658,"ARG_OF_PERICENTER":330.0065,"MEAN_ANOMALY":17.4112,"EPHEMERIS_TYPE":0,"CLASSIFICATION_TYPE":"U","NORAD_CAT_ID":21964,"ELEMENT_SET_NO":999,"REV_AT_EPOCH":4612,"BSTAR":0,"MEAN_MOTION_DOT":-1.9e-6,"MEAN_MOTION_DDOT":0},{"OBJECT_NAME":"INSAT-2A","OBJECT_ID":"1992-041A","EPOCH":"2026-03-03T00:51:38.590848","MEAN_MOTION":1.00219853,"ECCENTRICITY":0.0010546,"INCLINATION":14.5157,"RA_OF_ASC_NODE":352.6526,"ARG_OF_PERICENTER":288.201,"MEAN_ANOMALY":73.3683,"EPHEMERIS_TYPE":0,"CLASSIFICATION_TYPE":"U","NORAD_CAT_ID":22027,"ELEMENT_SET_NO":999,"REV_AT_EPOCH":12299,"BSTAR":0,"MEAN_MOTION_DOT":9.0e-8,"MEAN_MOTION_DDOT":0},{"OBJECT_NAME":"COSMOS 2209","OBJECT_ID":"1992-059A","EPOCH":"2026-02-22T04:34:38.779104","MEAN_MOTION":1.00242171,"ECCENTRICITY":0.00118802,"INCLINATION":13.6631,"RA_OF_ASC_NODE":343.4815,"ARG_OF_PERICENTER":336.8044,"MEAN_ANOMALY":229.4908,"EPHEMERIS_TYPE":0,"CLASSIFICATION_TYPE":"U","NORAD_CAT_ID":22112,"ELEMENT_SET_NO":999,"REV_AT_EPOCH":12246,"BSTAR":0,"MEAN_MOTION_DOT":-2.38e-6,"MEAN_MOTION_DDOT":0},{"OBJECT_NAME":"SL-12 R/B(2)","OBJECT_ID":"1992-059D","EPOCH":"2026-03-03T02:01:14.294208","MEAN_MOTION":0.99801628,"ECCENTRICITY":0.0012672,"INCLINATION":13.8889,"RA_OF_ASC_NODE":344.2517,"ARG_OF_PERICENTER":329.4872,"MEAN_ANOMALY":222.0046,"EPHEMERIS_TYPE":0,"CLASSIFICATION_TYPE":"U","NORAD_CAT_ID":22115,"ELEMENT_SET_NO":999,"REV_AT_EPOCH":12122,"BSTAR":0,"MEAN_MOTION_DOT":-2.19e-6,"MEAN_MOTION_DDOT":0},{"OBJECT_NAME":"HELLAS-SAT 1 (DFS 3)","OBJECT_ID":"1992-066A","EPOCH":"2026-03-02T13:33:33.058944","MEAN_MOTION":0.9973409,"ECCENTRICITY":0.0001211,"INCLINATION":14.1875,"RA_OF_ASC_NODE":7.8549,"ARG_OF_PERICENTER":261.6496,"MEAN_ANOMALY":289.5258,"EPHEMERIS_TYPE":0,"CLASSIFICATION_TYPE":"U","NORAD_CAT_ID":22175,"ELEMENT_SET_NO":999,"REV_AT_EPOCH":11948,"BSTAR":0,"MEAN_MOTION_DOT":1.9e-7,"MEAN_MOTION_DDOT":0},{"OBJECT_NAME":"GALAXY 7 (G-7)","OBJECT_ID":"1992-072A","EPOCH":"2026-03-03T03:40:27.283584","MEAN_MOTION":0.99709725,"ECCENTRICITY":0.0006789,"INCLINATION":14.4777,"RA_OF_ASC_NODE":4.0789,"ARG_OF_PERICENTER":22.0097,"MEAN_ANOMALY":162.104,"EPHEMERIS_TYPE":0,"CLASSIFICATION_TYPE":"U","NORAD_CAT_ID":22205,"ELEMENT_SET_NO":999,"REV_AT_EPOCH":11582,"BSTAR":0,"MEAN_MOTION_DOT":-2.8e-6,"MEAN_MOTION_DDOT":0},{"OBJECT_NAME":"EKRAN 20","OBJECT_ID":"1992-074A","EPOCH":"2026-03-02T21:11:56.704416","MEAN_MOTION":1.00272139,"ECCENTRICITY":0.00036,"INCLINATION":13.7497,"RA_OF_ASC_NODE":345.0766,"ARG_OF_PERICENTER":235.4546,"MEAN_ANOMALY":308.3062,"EPHEMERIS_TYPE":0,"CLASSIFICATION_TYPE":"U","NORAD_CAT_ID":22210,"ELEMENT_SET_NO":999,"REV_AT_EPOCH":4630,"BSTAR":0,"MEAN_MOTION_DOT":7.6e-7,"MEAN_MOTION_DDOT":0},{"OBJECT_NAME":"GORIZONT 27","OBJECT_ID":"1992-082A","EPOCH":"2026-03-03T00:05:17.608128","MEAN_MOTION":1.00179502,"ECCENTRICITY":0.0012406,"INCLINATION":13.7786,"RA_OF_ASC_NODE":344.762,"ARG_OF_PERICENTER":19.5272,"MEAN_ANOMALY":183.0944,"EPHEMERIS_TYPE":0,"CLASSIFICATION_TYPE":"U","NORAD_CAT_ID":22245,"ELEMENT_SET_NO":999,"REV_AT_EPOCH":12605,"BSTAR":0,"MEAN_MOTION_DOT":9.6e-7,"MEAN_MOTION_DDOT":0},{"OBJECT_NAME":"COSMOS 2224","OBJECT_ID":"1992-088A","EPOCH":"2026-03-03T01:59:51.927360","MEAN_MOTION":1.00254323,"ECCENTRICITY":0.000658,"INCLINATION":13.6851,"RA_OF_ASC_NODE":348.7272,"ARG_OF_PERICENTER":281.659,"MEAN_ANOMALY":260.2385,"EPHEMERIS_TYPE":0,"CLASSIFICATION_TYPE":"U","NORAD_CAT_ID":22269,"ELEMENT_SET_NO":999,"REV_AT_EPOCH":12102,"BSTAR":0,"MEAN_MOTION_DOT":-1.9e-6,"MEAN_MOTION_DDOT":0},{"OBJECT_NAME":"SL-12 R/B(2)","OBJECT_ID":"1992-088D","EPOCH":"2026-03-03T01:23:38.866272","MEAN_MOTION":1.0007676,"ECCENTRICITY":0.0007987,"INCLINATION":13.7869,"RA_OF_ASC_NODE":349.1923,"ARG_OF_PERICENTER":162.193,"MEAN_ANOMALY":23.156,"EPHEMERIS_TYPE":0,"CLASSIFICATION_TYPE":"U","NORAD_CAT_ID":22272,"ELEMENT_SET_NO":999,"REV_AT_EPOCH":4622,"BSTAR":0,"MEAN_MOTION_DOT":-1.27e-6,"MEAN_MOTION_DDOT":0},{"OBJECT_NAME":"TDRS 6","OBJECT_ID":"1993-003B","EPOCH":"2026-03-03T00:14:21.038208","MEAN_MOTION":1.00279261,"ECCENTRICITY":0.0005594,"INCLINATION":14.1806,"RA_OF_ASC_NODE":357.845,"ARG_OF_PERICENTER":201.246,"MEAN_ANOMALY":279.2715,"EPHEMERIS_TYPE":0,"CLASSIFICATION_TYPE":"U","NORAD_CAT_ID":22314,"ELEMENT_SET_NO":999,"REV_AT_EPOCH":12134,"BSTAR":0,"MEAN_MOTION_DOT":-3.05e-6,"MEAN_MOTION_DDOT":0},{"OBJECT_NAME":"RADUGA 29","OBJECT_ID":"1993-013A","EPOCH":"2026-03-02T15:50:55.320000","MEAN_MOTION":1.00385346,"ECCENTRICITY":0.000305,"INCLINATION":13.8985,"RA_OF_ASC_NODE":345.9085,"ARG_OF_PERICENTER":196.3365,"MEAN_ANOMALY":294.7782,"EPHEMERIS_TYPE":0,"CLASSIFICATION_TYPE":"U","NORAD_CAT_ID":22557,"ELEMENT_SET_NO":999,"REV_AT_EPOCH":12061,"BSTAR":0,"MEAN_MOTION_DOT":-1.8e-6,"MEAN_MOTION_DDOT":0},{"OBJECT_NAME":"HGS-4 (GALAXY 4)","OBJECT_ID":"1993-039A","EPOCH":"2026-03-01T19:39:17.553024","MEAN_MOTION":1.00265397,"ECCENTRICITY":0.00157304,"INCLINATION":14.5743,"RA_OF_ASC_NODE":355.9568,"ARG_OF_PERICENTER":31.1881,"MEAN_ANOMALY":143.9985,"EPHEMERIS_TYPE":0,"CLASSIFICATION_TYPE":"U","NORAD_CAT_ID":22694,"ELEMENT_SET_NO":999,"REV_AT_EPOCH":11792,"BSTAR":0,"MEAN_MOTION_DOT":-1.35e-6,"MEAN_MOTION_DDOT":0},{"OBJECT_NAME":"HISPASAT 1B","OBJECT_ID":"1993-048A","EPOCH":"2026-03-02T16:31:32.144736","MEAN_MOTION":0.99729411,"ECCENTRICITY":0.00084168,"INCLINATION":13.6374,"RA_OF_ASC_NODE":13.8761,"ARG_OF_PERICENTER":338.5069,"MEAN_ANOMALY":203.9551,"EPHEMERIS_TYPE":0,"CLASSIFICATION_TYPE":"U","NORAD_CAT_ID":22723,"ELEMENT_SET_NO":999,"REV_AT_EPOCH":11877,"BSTAR":0,"MEAN_MOTION_DOT":-3.2e-6,"MEAN_MOTION_DDOT":0},{"OBJECT_NAME":"INSAT-2B","OBJECT_ID":"1993-048B","EPOCH":"2026-03-03T00:14:36.060576","MEAN_MOTION":0.99974867,"ECCENTRICITY":0.0016896,"INCLINATION":14.4184,"RA_OF_ASC_NODE":3.395,"ARG_OF_PERICENTER":232.1374,"MEAN_ANOMALY":322.0976,"EPHEMERIS_TYPE":0,"CLASSIFICATION_TYPE":"U","NORAD_CAT_ID":22724,"ELEMENT_SET_NO":999,"REV_AT_EPOCH":11951,"BSTAR":0,"MEAN_MOTION_DOT":9.9e-7,"MEAN_MOTION_DDOT":0},{"OBJECT_NAME":"UFO 2 (USA 95)","OBJECT_ID":"1993-056A","EPOCH":"2026-03-03T00:09:04.445280","MEAN_MOTION":1.00272221,"ECCENTRICITY":0.0008856,"INCLINATION":11.8577,"RA_OF_ASC_NODE":4.1284,"ARG_OF_PERICENTER":335.6735,"MEAN_ANOMALY":211.8911,"EPHEMERIS_TYPE":0,"CLASSIFICATION_TYPE":"U","NORAD_CAT_ID":22787,"ELEMENT_SET_NO":999,"REV_AT_EPOCH":11748,"BSTAR":0,"MEAN_MOTION_DOT":1.15e-6,"MEAN_MOTION_DDOT":0},{"OBJECT_NAME":"RADUGA 30","OBJECT_ID":"1993-062A","EPOCH":"2026-03-02T22:07:03.475200","MEAN_MOTION":1.00277555,"ECCENTRICITY":0.0005946,"INCLINATION":14.0639,"RA_OF_ASC_NODE":347.9326,"ARG_OF_PERICENTER":320.1933,"MEAN_ANOMALY":265.0752,"EPHEMERIS_TYPE":0,"CLASSIFICATION_TYPE":"U","NORAD_CAT_ID":22836,"ELEMENT_SET_NO":999,"REV_AT_EPOCH":4493,"BSTAR":0,"MEAN_MOTION_DOT":-1.74e-6,"MEAN_MOTION_DDOT":0},{"OBJECT_NAME":"SL-12 R/B(2)","OBJECT_ID":"1993-062D","EPOCH":"2026-03-03T01:23:38.866272","MEAN_MOTION":1.00281057,"ECCENTRICITY":0.0008114,"INCLINATION":14.0021,"RA_OF_ASC_NODE":347.6623,"ARG_OF_PERICENTER":84.167,"MEAN_ANOMALY":104.5447,"EPHEMERIS_TYPE":0,"CLASSIFICATION_TYPE":"U","NORAD_CAT_ID":22839,"ELEMENT_SET_NO":999,"REV_AT_EPOCH":11779,"BSTAR":0,"MEAN_MOTION_DOT":-7.8e-7,"MEAN_MOTION_DDOT":0}]
